0 COSMOS 249 DEB *
1 03753U 68091AR  13280.91745253  .00005340  00000-0  68419-3 0  8444
2 03753 062.4366 099.9173 0381162 062.9524 096.5095 14.42426560255329
0 COSMOS 249 DEB *
1 03753U 68091AR  13282.70670141  .00007929  00000-0  10027-2 0  8453
2 03753 062.4369 094.3142 0381119 063.3393 027.7224 14.42458456255585
0 COSMOS 249 DEB *
1 03753U 68091AR  13283.59113450  .00015713  00000-0  19417-2 0  8470
2 03753 062.4367 091.5463 0380426 063.6134 300.3971 14.42467826255719
0 COSMOS 249 DEB *
1 03753U 68091AR  13285.82974991  .00006257  00000-0  79576-3 0  8479
2 03753 062.4364 084.5320 0381141 064.0119 045.5186 14.42496446256035
0 COSMOS 249 DEB *
1 03753U 68091AR  13287.77084213  .00008126  00000-0  10255-2 0  8480
2 03753 062.4364 078.4514 0381047 064.4298 045.6965 14.42518026256315
0 COSMOS 249 DEB *
1 03753U 68091AR  13288.81128436  .00008095  00000-0  10215-2 0  8494
2 03753 062.4367 075.1928 0380962 064.6625 048.8403 14.42540555256462
0 COSMOS 249 DEB *
1 03753U 68091AR  13290.52317903  .00006811  00000-0  83529-3 0  8509
2 03753 062.4381 069.8325 0381456 065.1235 298.9493 14.42560922256716
0 COSMOS 249 DEB *
1 03753U 68091AR  13290.75128132  .00008851  00000-0  11132-2 0  8504
2 03753 062.4377 069.1159 0381075 065.0725 043.6528 14.42563063256745
0 COSMOS 249 DEB *
1 03753U 68091AR  13292.47515509  .00006457  00000-0  81832-3 0  8519
2 03753 062.4385 063.7163 0381128 065.4333 356.2382 14.42586062256999
0 COSMOS 249 DEB *
1 03753U 68091AR  13293.73227681  .00007467  00000-0  94194-3 0  8528
2 03753 062.4386 059.7794 0381145 065.7048 044.9201 14.42597224257174
0 COSMOS 249 DEB *
1 03753U 68091AR  13294.77873057  .00008911  00000-0  11194-2 0  8531
2 03753 062.4385 056.5013 0381014 065.9208 079.5821 14.42609022257326
